CCSDS_OMM_VERS = 2.0
CREATION_DATE  = 
ORIGINATOR     = 

OBJECT_NAME    = ELECTRON KICK STAGE R/B
OBJECT_ID      = 2026-019C
CENTER_NAME    = EARTH
REF_FRAME      = TEME
TIME_SYSTEM    = UTC
MEAN_ELEMENT_THEORY = SGP/SGP4

EPOCH          = 2026-02-15T18:44:10.798656
MEAN_MOTION    = 15.64622392
ECCENTRICITY   = .0173982
INCLINATION    = 97.4043
RA_OF_ASC_NODE = 172.4350
ARG_OF_PERICENTER = 202.0042
MEAN_ANOMALY   = 157.3685

EPHEMERIS_TYPE = 0
CLASSIFICATION_TYPE = U
NORAD_CAT_ID   = 67616
ELEMENT_SET_NO = 999
REV_AT_EPOCH   = 260
BSTAR          = .20771E-2
MEAN_MOTION_DOT = .455134E-2
MEAN_MOTION_DDOT = .61457E-4

CCSDS_OMM_VERS = 2.0
CREATION_DATE  = 
ORIGINATOR     = 

OBJECT_NAME    = STARLINK-36548
OBJECT_ID      = 2026-020A
CENTER_NAME    = EARTH
REF_FRAME      = TEME
TIME_SYSTEM    = UTC
MEAN_ELEMENT_THEORY = SGP/SGP4

EPOCH          = 2026-02-15T19:44:24.134784
MEAN_MOTION    = 15.76450708
ECCENTRICITY   = .0002301
INCLINATION    = 42.9973
RA_OF_ASC_NODE = 275.1834
ARG_OF_PERICENTER = 248.0948
MEAN_ANOMALY   = 111.9677

EPHEMERIS_TYPE = 0
CLASSIFICATION_TYPE = U
NORAD_CAT_ID   = 67617
ELEMENT_SET_NO = 999
REV_AT_EPOCH   = 263
BSTAR          = .11174E-2
MEAN_MOTION_DOT = .186231E-2
MEAN_MOTION_DDOT = 0

CCSDS_OMM_VERS = 2.0
CREATION_DATE  = 
ORIGINATOR     = 

OBJECT_NAME    = STARLINK-36601
OBJECT_ID      = 2026-020B
CENTER_NAME    = EARTH
REF_FRAME      = TEME
TIME_SYSTEM    = UTC
MEAN_ELEMENT_THEORY = SGP/SGP4

EPOCH          = 2026-02-15T16:11:37.756320
MEAN_MOTION    = 15.82149394
ECCENTRICITY   = .0001363
INCLINATION    = 42.9960
RA_OF_ASC_NODE = 275.7823
ARG_OF_PERICENTER = 242.4500
MEAN_ANOMALY   = 117.6234

EPHEMERIS_TYPE = 0
CLASSIFICATION_TYPE = U
NORAD_CAT_ID   = 67618
ELEMENT_SET_NO = 999
REV_AT_EPOCH   = 261
BSTAR          = .17418E-2
MEAN_MOTION_DOT = .38543E-2
MEAN_MOTION_DDOT = 0

CCSDS_OMM_VERS = 2.0
CREATION_DATE  = 
ORIGINATOR     = 

OBJECT_NAME    = STARLINK-36119
OBJECT_ID      = 2026-020C
CENTER_NAME    = EARTH
REF_FRAME      = TEME
TIME_SYSTEM    = UTC
MEAN_ELEMENT_THEORY = SGP/SGP4

EPOCH          = 2026-02-15T18:10:00.497280
MEAN_MOTION    = 15.76433810
ECCENTRICITY   = .000216
INCLINATION    = 42.9979
RA_OF_ASC_NODE = 275.5502
ARG_OF_PERICENTER = 271.8737
MEAN_ANOMALY   = 88.1885

EPHEMERIS_TYPE = 0
CLASSIFICATION_TYPE = U
NORAD_CAT_ID   = 67619
ELEMENT_SET_NO = 999
REV_AT_EPOCH   = 262
BSTAR          = .70116E-3
MEAN_MOTION_DOT = .115609E-2
MEAN_MOTION_DDOT = 0

CCSDS_OMM_VERS = 2.0
CREATION_DATE  = 
ORIGINATOR     = 

OBJECT_NAME    = STARLINK-36607
OBJECT_ID      = 2026-020D
CENTER_NAME    = EARTH
REF_FRAME      = TEME
TIME_SYSTEM    = UTC
MEAN_ELEMENT_THEORY = SGP/SGP4

EPOCH          = 2026-02-15T16:09:04.701312
MEAN_MOTION    = 15.82149084
ECCENTRICITY   = .0001151
INCLINATION    = 42.9961
RA_OF_ASC_NODE = 275.7677
ARG_OF_PERICENTER = 260.7397
MEAN_ANOMALY   = 99.3344

EPHEMERIS_TYPE = 0
CLASSIFICATION_TYPE = U
NORAD_CAT_ID   = 67620
ELEMENT_SET_NO = 999
REV_AT_EPOCH   = 261
BSTAR          = .21085E-2
MEAN_MOTION_DOT = .47143E-2
MEAN_MOTION_DDOT = 0

CCSDS_OMM_VERS = 2.0
CREATION_DATE  = 
ORIGINATOR     = 

OBJECT_NAME    = STARLINK-36615
OBJECT_ID      = 2026-020E
CENTER_NAME    = EARTH
REF_FRAME      = TEME
TIME_SYSTEM    = UTC
MEAN_ELEMENT_THEORY = SGP/SGP4

EPOCH          = 2026-02-15T16:10:00.918336
MEAN_MOTION    = 15.82164707
ECCENTRICITY   = .0001554
INCLINATION    = 42.9960
RA_OF_ASC_NODE = 275.7726
ARG_OF_PERICENTER = 246.0666
MEAN_ANOMALY   = 114.0043

EPHEMERIS_TYPE = 0
CLASSIFICATION_TYPE = U
NORAD_CAT_ID   = 67621
ELEMENT_SET_NO = 999
REV_AT_EPOCH   = 261
BSTAR          = .20572E-2
MEAN_MOTION_DOT = .45964E-2
MEAN_MOTION_DDOT = 0

CCSDS_OMM_VERS = 2.0
CREATION_DATE  = 
ORIGINATOR     = 

OBJECT_NAME    = STARLINK-36614
OBJECT_ID      = 2026-020F
CENTER_NAME    = EARTH
REF_FRAME      = TEME
TIME_SYSTEM    = UTC
MEAN_ELEMENT_THEORY = SGP/SGP4

EPOCH          = 2026-02-15T19:34:56.690688
MEAN_MOTION    = 15.76415014
ECCENTRICITY   = .0002114
INCLINATION    = 42.9971
RA_OF_ASC_NODE = 275.1320
ARG_OF_PERICENTER = 271.7910
MEAN_ANOMALY   = 88.2717

EPHEMERIS_TYPE = 0
CLASSIFICATION_TYPE = U
NORAD_CAT_ID   = 67622
ELEMENT_SET_NO = 999
REV_AT_EPOCH   = 263
BSTAR          = .55777E-3
MEAN_MOTION_DOT = .91528E-3
MEAN_MOTION_DDOT = 0

CCSDS_OMM_VERS = 2.0
CREATION_DATE  = 
ORIGINATOR     = 

OBJECT_NAME    = STARLINK-36600
OBJECT_ID      = 2026-020G
CENTER_NAME    = EARTH
REF_FRAME      = TEME
TIME_SYSTEM    = UTC
MEAN_ELEMENT_THEORY = SGP/SGP4

EPOCH          = 2026-02-15T18:06:51.377184
MEAN_MOTION    = 15.76409483
ECCENTRICITY   = .000157
INCLINATION    = 42.9970
RA_OF_ASC_NODE = 275.5342
ARG_OF_PERICENTER = 269.8515
MEAN_ANOMALY   = 90.2175

EPHEMERIS_TYPE = 0
CLASSIFICATION_TYPE = U
NORAD_CAT_ID   = 67623
ELEMENT_SET_NO = 999
REV_AT_EPOCH   = 262
BSTAR          = .44814E-3
MEAN_MOTION_DOT = .73261E-3
MEAN_MOTION_DDOT = 0

CCSDS_OMM_VERS = 2.0
CREATION_DATE  = 
ORIGINATOR     = 

OBJECT_NAME    = STARLINK-36439
OBJECT_ID      = 2026-020H
CENTER_NAME    = EARTH
REF_FRAME      = TEME
TIME_SYSTEM    = UTC
MEAN_ELEMENT_THEORY = SGP/SGP4

EPOCH          = 2026-02-15T20:00:00.999360
MEAN_MOTION    = 15.76255703
ECCENTRICITY   = .0002024
INCLINATION    = 42.9977
RA_OF_ASC_NODE = 274.9028
ARG_OF_PERICENTER = 308.3694
MEAN_ANOMALY   = 200.3801

EPHEMERIS_TYPE = 0
CLASSIFICATION_TYPE = U
NORAD_CAT_ID   = 67624
ELEMENT_SET_NO = 999
REV_AT_EPOCH   = 387
BSTAR          = .85018E-3
MEAN_MOTION_DOT = .139576E-2
MEAN_MOTION_DDOT = 0

CCSDS_OMM_VERS = 2.0
CREATION_DATE  = 
ORIGINATOR     = 

OBJECT_NAME    = STARLINK-36438
OBJECT_ID      = 2026-020J
CENTER_NAME    = EARTH
REF_FRAME      = TEME
TIME_SYSTEM    = UTC
MEAN_ELEMENT_THEORY = SGP/SGP4

EPOCH          = 2026-02-15T19:31:47.364096
MEAN_MOTION    = 15.76447169
ECCENTRICITY   = .0002098
INCLINATION    = 42.9971
RA_OF_ASC_NODE = 275.1126
ARG_OF_PERICENTER = 284.7538
MEAN_ANOMALY   = 75.3099

EPHEMERIS_TYPE = 0
CLASSIFICATION_TYPE = U
NORAD_CAT_ID   = 67625
ELEMENT_SET_NO = 999
REV_AT_EPOCH   = 263
BSTAR          = .94808E-3
MEAN_MOTION_DOT = .157362E-2
MEAN_MOTION_DDOT = 0

CCSDS_OMM_VERS = 2.0
CREATION_DATE  = 
ORIGINATOR     = 

OBJECT_NAME    = STARLINK-36436
OBJECT_ID      = 2026-020K
CENTER_NAME    = EARTH
REF_FRAME      = TEME
TIME_SYSTEM    = UTC
MEAN_ELEMENT_THEORY = SGP/SGP4

EPOCH          = 2026-02-15T16:03:23.462784
MEAN_MOTION    = 15.82167759
ECCENTRICITY   = .0001381
INCLINATION    = 42.9959
RA_OF_ASC_NODE = 275.7357
ARG_OF_PERICENTER = 272.6811
MEAN_ANOMALY   = 87.3903

EPHEMERIS_TYPE = 0
CLASSIFICATION_TYPE = U
NORAD_CAT_ID   = 67626
ELEMENT_SET_NO = 999
REV_AT_EPOCH   = 261
BSTAR          = .17068E-2
MEAN_MOTION_DOT = .377667E-2
MEAN_MOTION_DDOT = 0

CCSDS_OMM_VERS = 2.0
CREATION_DATE  = 
ORIGINATOR     = 

OBJECT_NAME    = STARLINK-36502
OBJECT_ID      = 2026-020L
CENTER_NAME    = EARTH
REF_FRAME      = TEME
TIME_SYSTEM    = UTC
MEAN_ELEMENT_THEORY = SGP/SGP4

EPOCH          = 2026-02-15T16:04:26.649696
MEAN_MOTION    = 15.82161003
ECCENTRICITY   = .0001879
INCLINATION    = 42.9958
RA_OF_ASC_NODE = 275.7424
ARG_OF_PERICENTER = 227.8567
MEAN_ANOMALY   = 132.2145

EPHEMERIS_TYPE = 0
CLASSIFICATION_TYPE = U
NORAD_CAT_ID   = 67627
ELEMENT_SET_NO = 999
REV_AT_EPOCH   = 261
BSTAR          = .16677E-2
MEAN_MOTION_DOT = .368474E-2
MEAN_MOTION_DDOT = 0

