ELECTRON KICK STAGE R/B 
1 67616U 26019C   26046.78068054  .00455134  61457-4  20771-2 0  9998
2 67616  97.4043 172.4350 0173982 202.0042 157.3685 15.64622392  2600
STARLINK-36548          
1 67617U 26020A   26046.82250156  .00186231  00000+0  11174-2 0  9990
2 67617  42.9973 275.1834 0002301 248.0948 111.9677 15.76450708  2630
STARLINK-36601          
1 67618U 26020B   26046.67474255  .00385430  00000+0  17418-2 0  9991
2 67618  42.9960 275.7823 0001363 242.4500 117.6234 15.82149394  2613
STARLINK-36119          
1 67619U 26020C   26046.75695020  .00115609  00000+0  70116-3 0  9990
2 67619  42.9979 275.5502 0002160 271.8737  88.1885 15.76433810  2627
STARLINK-36607          
1 67620U 26020D   26046.67297108  .00471430  00000+0  21085-2 0  9995
2 67620  42.9961 275.7677 0001151 260.7397  99.3344 15.82149084  2610
STARLINK-36615          
1 67621U 26020E   26046.67362174  .00459640  00000+0  20572-2 0  9991
2 67621  42.9960 275.7726 0001554 246.0666 114.0043 15.82164707  2618
STARLINK-36614          
1 67622U 26020F   26046.81593392  .00091528  00000+0  55777-3 0  9999
2 67622  42.9971 275.1320 0002114 271.7910  88.2717 15.76415014  2630
STARLINK-36600          
1 67623U 26020G   26046.75476131  .00073261  00000+0  44814-3 0  9998
2 67623  42.9970 275.5342 0001570 269.8515  90.2175 15.76409483  2625
STARLINK-36439          
1 67624U 26020H   26046.83334490  .00139576  00000+0  85018-3 0  9992
2 67624  42.9977 274.9028 0002024 308.3694 200.3801 15.76255703  3871
STARLINK-36438          
1 67625U 26020J   26046.81374264  .00157362  00000+0  94808-3 0  9994
2 67625  42.9971 275.1126 0002098 284.7538  75.3099 15.76447169  2634
STARLINK-36436          
1 67626U 26020K   26046.66902156  .00377667  00000+0  17068-2 0  9999
2 67626  42.9959 275.7357 0001381 272.6811  87.3903 15.82167759  2613
STARLINK-36502          
1 67627U 26020L   26046.66975289  .00368474  00000+0  16677-2 0  9998
2 67627  42.9958 275.7424 0001879 227.8567 132.2145 15.82161003  2614
